STARLINK-3279           
1 50185U 21125AF  26068.80945714  .00000254  00000+0  34082-4 0  9991
2 50185  53.2176 248.6240 0001607  95.7602 264.3573 15.08834582236627
STARLINK-5895           
1 55964U 23037BC  26068.93316413  .00010921  00000+0  72850-3 0  9993
2 55964  69.9972 260.0280 0004986 264.4993  95.5602 15.07243555164606
